[
    {
        "CCSDS_OMM_VERS": "3.0",
        "COMMENT": "GENERATED VIA SPACE-TRACK.ORG API",
        "CREATION_DATE": "2025-05-02T17:35:09",
        "ORIGINATOR": "18 SPCS",
        "OBJECT_NAME": "GALILEO 22 (2C8)",
        "OBJECT_ID": "2017-079D",
        "CENTER_NAME": "EARTH",
        "REF_FRAME": "TEME",
        "TIME_SYSTEM": "UTC",
        "MEAN_ELEMENT_THEORY": "SGP4",
        "EPOCH": "2025-05-01T23:12:21.102624",
        "MEAN_MOTION": "1.70474721",
        "ECCENTRICITY": "0.00030770",
        "INCLINATION": "55.2085",
        "RA_OF_ASC_NODE": "232.8173",
        "ARG_OF_PERICENTER": "269.1738",
        "MEAN_ANOMALY": "90.7960",
        "EPHEMERIS_TYPE": "0",
        "CLASSIFICATION_TYPE": "U",
        "NORAD_CAT_ID": "43058",
        "ELEMENT_SET_NO": "999",
        "REV_AT_EPOCH": "4600",
        "BSTAR": "0.00000000000000",
        "MEAN_MOTION_DOT": "-0.00000018",
        "MEAN_MOTION_DDOT": "0.0000000000000",
        "SEMIMAJOR_AXIS": "29600.237",
        "PERIOD": "844.700",
        "APOAPSIS": "23231.210",
        "PERIAPSIS": "23212.994",
        "OBJECT_TYPE": "PAYLOAD",
        "RCS_SIZE": "LARGE",
        "COUNTRY_CODE": "ESA",
        "LAUNCH_DATE": "2017-12-12",
        "SITE": "FRGUI",
        "DECAY_DATE": null,
        "FILE": "4716995",
        "GP_ID": "286679501",
        "TLE_LINE0": "0 GALILEO 22 (2C8)",
        "TLE_LINE1": "1 43058U 17079D   25121.96691091 -.00000018  00000-0  00000-0 0  9996",
        "TLE_LINE2": "2 43058  55.2085 232.8173 0003077 269.1738  90.7960  1.70474721 46000"
    }
]